ZHUHAI-1 02 (CAS-4B)    
1 42759U 17034B   23137.77324189  .00007500  00000+0  38400-3 0  9998
2 42759  43.0159 284.7014 0012020 266.8969  93.0504 15.16946611327012
ZHUHAI-1 01 (CAS-4A)    
1 42761U 17034D   23137.72365613  .00006613  00000+0  33976-3 0  9990
2 42761  43.0145 283.5106 0012684 268.3030  91.6365 15.16969679327019
MAX VALIER SAT          
1 42778U 17036P   23137.65581537  .00017676  00000+0  48156-3 0  9994
2 42778  97.1584 173.2455 0008280 194.7408 165.3597 15.37506754328037
RADFXSAT (FOX-1B)       
1 43017U 17073E   23137.20878437  .00004463  00000+0  31587-3 0  9991
2 43017  97.6353  22.7773 0234969 171.1664 189.3801 14.85677570296587
FOX-1D (AO-92)          
1 43137U 18004AC  23137.17585026  .00028468  00000+0  62404-3 0  9997
2 43137  97.3297 216.0790 0005207 236.2567 123.8186 15.44036465297518
DIWATA-2B               
1 43678U 18084H   23137.63517205  .00001272  00000+0  12707-3 0  9995
2 43678  98.0186 280.9991 0008233 261.3627  98.6659 14.93330034247706
ES'HAIL 2               
1 43700U 18090A   23137.68715909  .00000143  00000+0  00000+0 0  9999
2 43700   0.0147 288.4231 0001476 162.7410  57.1413  1.00274018 16624
FOX-1CLIFF (AO-95)      
1 43770U 18099N   23137.66690118  .00004254  00000+0  35028-3 0  9996
2 43770  97.5778 200.0281 0010619 226.6911 133.3428 14.99565404243036
ITASAT 1                
1 43786U 18099AE  23137.12895982  .00004429  00000+0  36721-3 0  9995
2 43786  97.5791 200.5370 0012182 216.9755 143.0630 14.99265287242990
JY1SAT (JO-97)          
1 43803U 18099AX  23137.10969728  .00004760  00000+0  38197-3 0  9990
2 43803  97.5699 200.4852 0011975 199.7407 160.3356 15.00488056243039
UWE-4                   
1 43880U 18111E   23137.24595063  .00004122  00000+0  31959-3 0  9993
2 43880  97.6370  42.9218 0015049 278.7447  81.2073 15.01862203237721
NEXUS (FO-99)           
1 43937U 19003F   23137.07427656  .00044555  00000+0  79650-3 0  9994
2 43937  97.0900 164.7314 0013236  40.9476 319.2767 15.49791203241221
JAISAT-1                
1 44419U 19038F   23137.74145238  .00019043  00000+0  67656-3 0  9992
2 44419  97.6723 118.4838 0017074  56.5223 303.7645 15.28929753213884
DUCHIFAT-3              
1 44854U 19089C   23137.70897396  .00006731  00000+0  46000-3 0  9996
2 44854  36.9622 273.3752 0008394  64.9899 295.1716 15.05809836188242
CAS-6 (TIANQIN 1)       
1 44881U 19093C   23137.78913277  .00000951  00000+0  12493-3 0  9993
2 44881  97.8617 216.7583 0014974 171.9521 188.1936 14.82469000184292
RS-44 & BREEZE-KM R/B   
1 44909U 19096E   23137.73122779  .00000027  00000+0  72007-4 0  9993
2 44909  82.5243   8.1865 0216342 258.1576  99.5191 12.79720554158316
BY70-2                  
1 45857U 20042B   23137.78728021  .00014395  00000+0  15174-2 0  9999
2 45857  97.9263 217.6074 0010573 111.9071 248.3271 14.89391718155010
SALSAT                  
1 46495U 20068K   23136.79309757  .00004361  00000+0  29121-3 0  9997
2 46495  97.7683  84.4746 0014340 221.9590 138.0540 15.07471800144343
RADFXSAT-2 (AO-109)     
1 47311U 21002C   23137.43332508  .00018143  00000+0  49292-3 0  9990
2 47311  60.6800 176.6362 0017403 157.7850 202.4002 15.37563826129566
UVSQ-SAT                
1 47438U 21006AB  23137.69572744  .00011878  00000+0  49937-3 0  9994
2 47438  97.3871 195.2579 0010454 180.3888 179.7342 15.23515033128003
DIY-1 (ARDUIQUBE)       
1 47963U 21022AH  23137.71051480  .00123221  00000+0  21060-2 0  9999
2 47963  97.5003  44.8395 0011227  75.9732 284.2766 15.50779185117859
XW-3 (CAS-9)            
1 50466U 21131B   23137.78187766  .00000542  00000+0  19052-3 0  9995
2 50466  98.5515 219.4221 0003559 215.9604 144.1344 14.38882178 72983
TEVEL-3                 
1 50988U 22002E   23137.72424273  .00014609  00000+0  60500-3 0  9996
2 50988  97.4354 204.9203 0006745 350.7015   9.4096 15.24004917 74122
TEVEL-8                 
1 50989U 22002F   23137.74168574  .00014990  00000+0  62188-3 0  9995
2 50989  97.4368 204.9936 0006748 349.0669  11.0421 15.23940183 74124
TEVEL-5                 
1 50998U 22002Q   23137.75046158  .00015123  00000+0  61167-3 0  9994
2 50998  97.4347 205.2953 0007774 342.2570  17.8395 15.24786026 74152
TEVEL-6                 
1 50999U 22002R   23137.74898125  .00015137  00000+0  61224-3 0  9992
2 50999  97.4345 205.2891 0007776 342.0130  18.0831 15.24785718 74159
TEVEL-1                 
1 51013U 22002AF  23137.73314866  .00015044  00000+0  62372-3 0  9996
2 51013  97.4348 204.8765 0006638 349.9246  10.1857 15.23961795 74123
TEVEL-7                 
1 51062U 22002CG  23137.74301134  .00014861  00000+0  61630-3 0  9997
2 51062  97.4364 204.9689 0006706 348.4791  11.6292 15.23954997 74121
TEVEL-4                 
1 51063U 22002CH  23137.74810254  .00014500  00000+0  60223-3 0  9993
2 51063  97.4364 204.9600 0006712 348.5605  11.5479 15.23907985 74128
TEVEL-2                 
1 51069U 22002CP  23137.72609377  .00015073  00000+0  62406-3 0  9990
2 51069  97.4351 204.8949 0006683 350.1245   9.9860 15.24005617 74128
GREENCUBE               
1 53106U 22080B   23130.54224914 -.00000003  00000+0  00000+0 0  9999
2 53106  70.1661 332.8054 0008272 193.3243 166.7199  6.42557278 19338
RS29S (SXC3-2110 CYCLO*)
1 53373U 22096D   23137.75618955  .00025064  00000+0  68790-3 0  9991
2 53373  97.4170  43.7393 0002013 101.7136 258.4335 15.37243942 43013
RS32S (SXC3-212 MONITO*)
1 53374U 22096E   23137.77463802  .00021995  00000+0  61859-3 0  9991
2 53374  97.4150  43.6818 0001779 116.5545 243.5882 15.36508952 43015
RS34S (SXC3-218 KUZBAS*)
1 53375U 22096F   23137.75967179  .00018743  00000+0  55687-3 0  9995
2 53375  97.4176  43.4319 0001730 116.3716 243.7705 15.34818170 42999
RS23S (SXC3-21 UTMN)    
1 53376U 22096G   23137.79228939  .00018629  00000+0  54492-3 0  9990
2 53376  97.4170  43.5358 0001867 105.8620 254.2829 15.35310208 43003
RS28S (SXC3-214 MIET-A*)
1 53377U 22096H   23137.76234862  .00016735  00000+0  50215-3 0  9995
2 53377  97.4179  43.4337 0001644 118.8389 241.3019 15.34530116 42994
RS26S (KAI-1)           
1 53378U 22096J   23137.77422258  .00013788  00000+0  43143-3 0  9992
2 53378  97.4193  43.2757 0001657 121.4815 238.6590 15.33242355 42989
RS19S (SXC3-219 ISOI)   
1 53381U 22096M   23137.79077253  .00015747  00000+0  46129-3 0  9993
2 53381  97.4170  43.6859 0004639 137.4082 222.7522 15.35293438 43015
RS21S (CUBESX-HSE-2)    
1 53383U 22096P   23137.77152320  .00018278  00000+0  52893-3 0  9999
2 53383  97.4173  43.7214 0005050 140.4627 219.6985 15.35643089 43012
RS30S (SXC3-217 SIREN)  
1 53384U 22096Q   23137.77524389  .00015151  00000+0  45732-3 0  9999
2 53384  97.4185  43.5731 0005046 139.9698 220.1918 15.34354090 43006
RS20S (GEOSCAN-EDELVEIS)
1 53385U 22096R   23137.75249868  .00024641  00000+0  64498-3 0  9998
2 53385  97.4163  44.1857 0005474 137.9602 222.2064 15.38701150 43076
RS33S (SXC3-215 VIZARD) 
1 53386U 22096S   23137.73410027  .00035156  00000+0  82826-3 0  9992
2 53386  97.4162  44.6643 0006173 138.0758 222.0963 15.41831876 43096
CAS-5A (FO-118)         
1 54684U 22167C   23137.73406022  .00009987  00000+0  56165-3 0  9993
2 54684  97.5578 275.5439 0014644  82.6502 277.6393 15.13381467 24076
